OBJECT_NAME,OBJECT_ID,EPOCH,MEAN_MOTION,ECCENTRICITY,INCLINATION,RA_OF_ASC_NODE,ARG_OF_PERICENTER,MEAN_ANOMALY,EPHEMERIS_TYPE,CLASSIFICATION_TYPE,NORAD_CAT_ID,ELEMENT_SET_NO,REV_AT_EPOCH,BSTAR,MEAN_MOTION_DOT,MEAN_MOTION_DDOT
CUBEBUG-2 (LO-74),2013-066AA,2026-06-18T06:27:15.672960,14.93769757,.00583235,97.8910,118.2515,25.5891,334.8194,0,U,39440,999,67715,.36657145E-3,.3955E-4,0
FUNCUBE-1 (AO-73),2013-066AE,2026-06-17T22:02:21.619392,15.09498416,.00356925,97.8280,140.3793,198.2230,161.7722,0,U,39444,999,67977,.33079336E-3,.5311E-4,0
UWE-3,2013-066AG,2026-06-17T19:36:47.286144,14.97029101,.00474681,97.8697,124.8951,319.0483,40.7177,0,U,39446,999,67767,.31731942E-3,.3675E-4,0
UNISAT-6,2014-033C,2026-06-18T00:10:34.129344,14.88249726,.0046222,97.7883,321.7044,66.6949,293.9123,0,U,40012,999,64628,.21480257E-3,.1966E-4,0
DUCHIFAT-1,2014-033M,2026-06-18T02:36:45.378720,15.64751867,.00027316,98.0458,228.3980,118.1030,242.0504,0,U,40021,999,65589,.8400996E-3,.82132E-3,0
QB50P1,2014-033R,2026-06-18T00:09:52.030944,15.18271143,.00078854,98.0961,180.2104,212.2174,147.8578,0,U,40025,999,65315,.31496322E-3,.6382E-4,0
LILACSAT-2,2015-049K,2026-06-18T07:18:04.965696,15.51475148,.00055781,97.4638,206.1883,239.4164,120.6538,0,U,40908,999,59592,.22865203E-3,.13413E-3,0
FOX-1A (AO-85),2015-058D,2026-06-18T06:59:54.609792,14.90973898,.01305389,64.7760,275.5520,56.1547,305.1908,0,U,40967,999,11373,.17048921E-3,.1807E-4,0
CAS-2T & KS-1Q,2016-066G,2026-06-18T05:02:47.789376,14.44697523,.03428217,98.3822,244.9349,126.3847,236.9490,0,U,41847,999,50494,.20487926E-3,.1412E-4,0
RADFXSAT (FOX-1B),2017-073E,2026-06-17T14:31:00.659136,15.12722439,.0149538,97.4696,35.8108,327.7970,31.4193,0,U,43017,999,46545,.24962E-3,.5679E-4,0
DIWATA-2B,2018-084H,2026-06-18T05:41:06.394848,15.00455353,.00125177,98.1178,5.4902,166.7078,193.4477,0,U,43678,999,41637,.14492279E-3,.176E-4,0
ES'HAIL 2,2018-090A,2026-06-18T04:29:22.434144,1.00271194,.00016703,0.0171,19.0751,105.0983,235.3779,0,U,43700,999,2768,0,.138E-5,0
FOX-1CLIFF (AO-95),2018-099N,2026-06-18T03:01:57.284544,15.26728638,.00078742,97.4378,229.3690,354.3313,5.7835,0,U,43770,999,41336,.35966179E-3,.939E-4,0
ITASAT,2018-099AE,2026-06-18T03:23:45.460896,15.19068297,.00119802,97.4024,220.6342,356.9860,3.1301,0,U,43786,999,41305,.27436815E-3,.5695E-4,0
JY1SAT (JO-97),2018-099AX,2026-06-18T03:21:08.262144,15.33679040,.00043897,97.4123,231.9773,257.5077,102.5675,0,U,43803,999,41377,.43793924E-3,.14196E-3,0
UWE-4,2018-111E,2026-06-18T06:00:53.776224,15.46181512,.00053009,97.5854,97.6902,337.5186,22.5830,0,U,43880,999,41094,.50222648E-3,.24613E-3,0
TIANYAN 01,2019-093C,2026-06-18T06:09:11.104992,14.86519812,.00150953,97.7534,241.4624,83.4988,276.7946,0,U,44881,999,35157,.26006731E-4,.177E-5,0
RS-44 & BREEZE-KM R/B,2019-096E,2026-06-17T22:38:27.244896,12.79748846,.02181978,82.5219,339.2023,142.4037,219.2549,0,U,44909,999,30244,-.5851704E-5,.11E-6,0
SALSAT,2020-068K,2026-06-17T23:54:00.626976,15.29809762,.00080177,97.8849,172.1096,304.7591,55.2892,0,U,46495,999,31548,.22101641E-3,.6301E-4,0
XW-3 (CAS-9),2021-131B,2026-06-18T07:17:59.121600,14.41358006,.00053913,98.4987,261.6877,94.6141,265.5664,0,U,50466,999,23527,.9519943E-4,.264E-5,0
GREENCUBE (IO-117),2022-080E,2026-06-18T06:34:12.264384,6.42583242,.00089089,70.1443,297.8672,289.4662,70.5035,0,U,53109,999,9213,0,-.3E-7,0
UMKA 1 (RS40S),2023-091G,2026-06-18T05:05:55.607424,15.20828137,.00142577,97.5047,227.9057,114.4510,245.8215,0,U,57172,999,16416,.21062077E-3,.4588E-4,0
CUBESX-HSE 3 (RS42S),2023-091N,2026-06-18T05:15:58.779648,15.31236495,.00120205,97.5088,234.8196,91.6666,268.5952,0,U,57178,999,16458,.32489662E-3,.9747E-4,0
MONITOR-3 (RS58S),2023-091Q,2026-06-18T02:45:54.320256,15.27858335,.00130936,97.5078,232.5680,97.9504,262.3222,0,U,57180,999,16443,.34333482E-3,.9287E-4,0
MONITOR-4 (RS57S),2023-091S,2026-06-18T05:24:16.949088,15.27944755,.00130835,97.5073,232.6502,97.8735,262.3989,0,U,57182,999,16445,.30066019E-3,.8144E-4,0
MONITOR-2 (RS39S),2023-091U,2026-06-18T05:38:23.133408,15.18918889,.00127498,97.5069,227.5111,107.9428,252.3197,0,U,57184,999,16411,.20643083E-3,.4249E-4,0
SVYATOBOR 1 (RS60S),2023-091X,2026-06-18T05:44:25.142496,15.26630360,.00108695,97.5085,233.0619,91.3637,268.8846,0,U,57187,999,16447,.26552605E-3,.6895E-4,0
VIZARD-METEO (RS38S),2023-091Z,2026-06-18T06:07:18.488640,15.36054800,.00082095,97.5089,238.7616,74.3712,285.8436,0,U,57189,999,16485,.37391109E-3,.13067E-3,0
POLYTECH-UNIVERSE 3 (RS46S),2023-091AB,2026-06-18T04:42:30.188736,15.19120799,.0016908,97.5045,226.9771,123.5482,236.7370,0,U,57191,999,16410,.18961166E-3,.3926E-4,0
UTMN 2 (RS27S),2023-091AP,2026-06-18T05:40:29.562528,15.32073829,.00091997,97.5084,236.4721,80.5722,279.6559,0,U,57203,999,16470,.32879438E-3,.10117E-3,0
