CUBEBUG-2 (LO-74)       
1 39440U 13066AA  26169.26893140  .00003955  00000+0  36657-3 0  9994
2 39440  97.8910 118.2515 0058323  25.5891 334.8194 14.93769757677156
FUNCUBE-1 (AO-73)       
1 39444U 13066AE  26168.91830578  .00005311  00000+0  33079-3 0  9998
2 39444  97.8280 140.3793 0035692 198.2230 161.7722 15.09498416679776
UWE-3                   
1 39446U 13066AG  26168.81721396  .00003675  00000+0  31732-3 0  9991
2 39446  97.8697 124.8951 0047468 319.0483  40.7177 14.97029101677674
UNISAT-6                
1 40012U 14033C   26169.00733946  .00001966  00000+0  21480-3 0  9993
2 40012  97.7883 321.7044 0046222  66.6949 293.9123 14.88249726646284
DUCHIFAT-1              
1 40021U 14033M   26169.10885855  .00082132  00000+0  84010-3 0  9993
2 40021  98.0458 228.3980 0002731 118.1030 242.0504 15.64751867655892
QB50P1                  
1 40025U 14033R   26169.00685221  .00006382  00000+0  31496-3 0  9994
2 40025  98.0961 180.2104 0007885 212.2174 147.8578 15.18271143653152
LILACSAT-2              
1 40908U 15049K   26169.30422414  .00013413  00000+0  22865-3 0  9991
2 40908  97.4638 206.1883 0005578 239.4164 120.6538 15.51475148595928
FOX-1A (AO-85)          
1 40967U 15058D   26169.29160428  .00001807  00000+0  17049-3 0  9990
2 40967  64.7760 275.5520 0130538  56.1547 305.1908 14.90973898113731
CAS-2T & KS-1Q          
1 41847U 16066G   26169.21027534  .00001412  00000+0  20488-3 0  9993
2 41847  98.3822 244.9349 0342821 126.3847 236.9490 14.44697523504944
RADFXSAT (FOX-1B)       
1 43017U 17073E   26168.60486874  .00005679  00000+0  24962-3 0  9991
2 43017  97.4696  35.8108 0149538 327.7970  31.4193 15.12722439465459
DIWATA-2B               
1 43678U 18084H   26169.23687957  .00001760  00000+0  14492-3 0  9996
2 43678  98.1178   5.4902 0012517 166.7078 193.4477 15.00455353416372
ES'HAIL 2               
1 43700U 18090A   26169.18706521  .00000138  00000+0  00000+0 0  9996
2 43700   0.0171  19.0751 0001670 105.0983 235.3779  1.00271194 27682
FOX-1CLIFF (AO-95)      
1 43770U 18099N   26169.12635746  .00009390  00000+0  35966-3 0  9998
2 43770  97.4378 229.3690 0007874 354.3313   5.7835 15.26728638413363
ITASAT                  
1 43786U 18099AE  26169.14149839  .00005695  00000+0  27437-3 0  9998
2 43786  97.4024 220.6342 0011980 356.9860   3.1301 15.19068297413050
JY1SAT (JO-97)          
1 43803U 18099AX  26169.13967896  .00014196  00000+0  43794-3 0  9998
2 43803  97.4123 231.9773 0004389 257.5077 102.5675 15.33679040413771
UWE-4                   
1 43880U 18111E   26169.25062241  .00024613  00000+0  50223-3 0  9991
2 43880  97.5854  97.6902 0005300 337.5186  22.5830 15.46181512410949
TIANYAN 01              
1 44881U 19093C   26169.25637853  .00000177  00000+0  26007-4 0  9993
2 44881  97.7534 241.4624 0015095  83.4988 276.7946 14.86519812351572
RS-44 & BREEZE-KM R/B   
1 44909U 19096E   26168.94337089  .00000011  00000+0 -58517-5 0  9990
2 44909  82.5219 339.2023 0218197 142.4037 219.2549 12.79748846302447
SALSAT                  
1 46495U 20068K   26168.99584059  .00006301  00000+0  22102-3 0  9995
2 46495  97.8849 172.1096 0008017 304.7591  55.2892 15.29809762315487
XW-3 (CAS-9)            
1 50466U 21131B   26169.30415650  .00000264  00000+0  95199-4 0  9995
2 50466  98.4987 261.6877 0005391  94.6141 265.5664 14.41358006235273
GREENCUBE (IO-117)      
1 53109U 22080E   26169.27375306 -.00000003  00000+0  00000+0 0  9999
2 53109  70.1443 297.8672 0008908 289.4662  70.5035  6.42583242 92133
UMKA 1 (RS40S)          
1 57172U 23091G   26169.21244916  .00004588  00000+0  21062-3 0  9998
2 57172  97.5047 227.9057 0014257 114.4510 245.8215 15.20828137164165
CUBESX-HSE 3 (RS42S)    
1 57178U 23091N   26169.21943032  .00009747  00000+0  32490-3 0  9998
2 57178  97.5088 234.8196 0012020  91.6666 268.5952 15.31236495164589
MONITOR-3 (RS58S)       
1 57180U 23091Q   26169.11521204  .00009287  00000+0  34333-3 0  9990
2 57180  97.5078 232.5680 0013093  97.9504 262.3222 15.27858335164439
MONITOR-4 (RS57S)       
1 57182U 23091S   26169.22519617  .00008144  00000+0  30066-3 0  9999
2 57182  97.5073 232.6502 0013083  97.8735 262.3989 15.27944755164458
MONITOR-2 (RS39S)       
1 57184U 23091U   26169.23498997  .00004249  00000+0  20643-3 0  9991
2 57184  97.5069 227.5111 0012749 107.9428 252.3197 15.18918889164116
SVYATOBOR 1 (RS60S)     
1 57187U 23091X   26169.23917989  .00006895  00000+0  26553-3 0  9996
2 57187  97.5085 233.0619 0010869  91.3637 268.8846 15.26630360164477
VIZARD-METEO (RS38S)    
1 57189U 23091Z   26169.25507510  .00013067  00000+0  37391-3 0  9996
2 57189  97.5089 238.7616 0008209  74.3712 285.8436 15.36054800164858
POLYTECH-UNIVERSE 3 (R*)
1 57191U 23091AB  26169.19618274  .00003926  00000+0  18961-3 0  9997
2 57191  97.5045 226.9771 0016908 123.5482 236.7370 15.19120799164102
UTMN 2 (RS27S)          
1 57203U 23091AP  26169.23645327  .00010117  00000+0  32879-3 0  9999
2 57203  97.5084 236.4721 0009199  80.5722 279.6559 15.32073829164700
